     2.100          NAVIGATION                              RINEX VERSION / TYPE
fic2rin                                 07/21/2016 01:06:58 PGM / RUN BY / DATE
                                                            END OF HEADER
 4 16  7 20 22  0  0.0 -.259278342128D-03 -.341060513165D-12  .000000000000D+00
     .330000000000D+02  .123093750000D+03  .529664919813D-08 -.172891280793D+00
     .652298331261D-05  .848292920273D-02  .572763383389D-05  .515366289330D+04
     .338400000000D+06  .726431608200D-07  .104384468242D+01  .156462192535D-06
     .983156225180D+00  .284000000000D+03  .902991749368D+00 -.810783772399D-08
     .478591363823D-09  .100000000000D+01  .190600000000D+04  .000000000000D+00
     .240000000000D+01  .630000000000D+02 -.195577740669D-07  .330000000000D+02
     .331206000000D+06  .400000000000D+01
 5 16  7 20 22  0  0.0 -.103993341327D-03  .272848410532D-11  .000000000000D+00
     .600000000000D+02  .303125000000D+02  .498127891883D-08 -.486608897328D+00
     .150501728058D-05  .458822085056D-02  .843964517117D-05  .515355740356D+04
     .338400000000D+06  .372529029846D-07 -.213344461766D+01  .316649675369D-07
     .946250833843D+00  .209031250000D+03  .461756986901D+00 -.821284209784D-08
     .429303596504D-09  .100000000000D+01  .190600000000D+04  .000000000000D+00
     .240000000000D+01  .000000000000D+00 -.107102096081D-07  .600000000000D+02
     .331206000000D+06  .400000000000D+01
 6 16  7 20 22  0  0.0  .221359543502D-03  .522959453519D-11  .000000000000D+00
     .810000000000D+02 -.108375000000D+03  .433196615806D-08 -.312098870616D+01
    -.541657209396D-05  .322234234773D-03  .107213854790D-04  .515373815536D+04
     .338400000000D+06  .558793544769D-07  .311278955796D+01  .223517417908D-07
     .965119858442D+00  .175656250000D+03 -.134731360399D+01 -.787497088129D-08
    -.435732435719D-10  .100000000000D+01  .190600000000D+04  .000000000000D+00
     .240000000000D+01  .000000000000D+00  .419095158577D-08  .810000000000D+02
     .331206000000D+06  .400000000000D+01
 7 16  7 20 22  0  0.0  .440624542534D-03 -.261479726760D-11  .000000000000D+00
     .790000000000D+02  .294687500000D+02  .398373736722D-08  .219721117158D+01
     .151805579662D-05  .979126198217D-02  .128485262394D-04  .515364488220D+04
     .338400000000D+06 -.203028321266D-06 -.338723759490D-02 -.651925802231D-07
     .966162447973D+00  .134718750000D+03 -.265788487203D+01 -.766639076452D-08
    -.481091467962D-09  .100000000000D+01  .190600000000D+04  .000000000000D+00
     .240000000000D+01  .000000000000D+00 -.111758708954D-07  .790000000000D+02
     .331206000000D+06  .400000000000D+01
 8 16  7 20 22  0  0.0 -.435062684119D-04 -.147792889038D-11  .000000000000D+00
     .710000000000D+02 -.606250000000D+02  .489484674716D-08 -.435994518225D+00
    -.338815152645D-05  .167382590007D-02  .990927219391D-06  .515371966362D+04
     .338400000000D+06 -.316649675369D-07  .206039366440D+01 -.186264514923D-08
     .963633540988D+00  .361187500000D+03 -.104018949090D+01 -.860928718280D-08
    -.928610108910D-10  .100000000000D+01  .190600000000D+04  .000000000000D+00
     .240000000000D+01  .000000000000D+00  .465661287308D-08  .710000000000D+02
     .331206000000D+06  .400000000000D+01
 9 16  7 20 22  0  0.0  .171255320311D-03  .727595761418D-11  .000000000000D+00
     .490000000000D+02 -.194375000000D+02  .511414159595D-08 -.165192098157D+01
    -.107660889626D-05  .500941649079D-03  .492297112942D-05  .515352886200D+04
     .338400000000D+06  .372529029846D-08 -.108144987818D+01  .223517417908D-07
     .954387942614D+00  .279375000000D+03  .239158265408D+01 -.833177562333D-08
    -.379301513716D-09  .100000000000D+01  .190600000000D+04  .000000000000D+00
     .240000000000D+01  .000000000000D+00  .139698386192D-08  .490000000000D+02
     .331206000000D+06  .400000000000D+01
10 16  7 20 22  0  0.0 -.691702589393D-04 -.704858393874D-11  .000000000000D+00
     .450000000000D+02  .365000000000D+02  .477234164433D-08  .608153678739D+00
     .192224979401D-05  .163429731037D-02  .842660665512D-05  .515367980957D+04
     .338400000000D+06  .745058059692D-08 -.212476963049D+01  .000000000000D+00
     .959418604824D+00  .213093750000D+03 -.274295264987D+01 -.811533803640D-08
     .469305262734D-09  .100000000000D+01  .190600000000D+04  .000000000000D+00
     .240000000000D+01  .000000000000D+00  .232830643654D-08  .450000000000D+02
     .331206000000D+06  .400000000000D+01
11 16  7 20 22  0  0.0 -.656566582620D-03 -.125055521494D-11  .000000000000D+00
     .150000000000D+02 -.162718750000D+03  .588917387916D-08  .231214300736D+01
    -.846385955811D-05  .166291192872D-01  .672787427902D-05  .515367772102D+04
     .338400000000D+06  .221654772758D-06  .274055573028D+01 -.130385160446D-06
     .897597031216D+00  .213875000000D+03  .154531274297D+01 -.851856911831D-08
    -.317156067966D-09  .100000000000D+01  .190600000000D+04  .000000000000D+00
     .240000000000D+01  .000000000000D+00 -.121071934700D-07  .150000000000D+02
     .331206000000D+06  .400000000000D+01
12 16  7 20 22  0  0.0  .385752413422D-03  .909494701773D-12  .000000000000D+00
     .740000000000D+02  .113781250000D+03  .380658713106D-08  .160009220345D+01
     .583939254284D-05  .610593857709D-02  .549852848053D-05  .515369636917D+04
     .338400000000D+06 -.137835741043D-06  .107353518708D+01  .596046447754D-07
     .990174763382D+00  .285656250000D+03  .782095005556D+00 -.794783105907D-08
     .411802867528D-09  .100000000000D+01  .190600000000D+04  .000000000000D+00
     .340000000000D+01  .000000000000D+00 -.125728547573D-07  .740000000000D+02
     .331206000000D+06  .400000000000D+01
13 16  7 20 22  0  0.0 -.324365682900D-04 -.238742359215D-11  .000000000000D+00
     .650000000000D+02 -.286250000000D+02  .452518849226D-08  .313394592812D+01
    -.135786831379D-05  .414024258498D-02  .573880970478D-05  .515367391396D+04
     .338400000000D+06  .111758708954D-07 -.959875597026D+00 -.111758708954D-07
     .970816271263D+00  .276687500000D+03  .199525460074D+01 -.793890211571D-08
    -.510021244432D-09  .100000000000D+01  .190600000000D+04  .000000000000D+00
     .240000000000D+01  .000000000000D+00 -.111758708954D-07  .650000000000D+02
     .331206000000D+06  .400000000000D+01
14 16  7 20 22  0  0.0 -.256225466728D-04 -.193267624127D-11  .000000000000D+00
     .660000000000D+02 -.267812500000D+02  .478091342995D-08 -.159486264875D+01
    -.141374766827D-05  .888024747837D-02  .563263893127D-05  .515402785492D+04
     .338400000000D+06  .238418579102D-06 -.997270365182D+00  .111758708954D-06
     .963281178150D+00  .273812500000D+03 -.195939105577D+01 -.807212195057D-08
    -.520378818724D-09  .100000000000D+01  .190600000000D+04  .000000000000D+00
     .240000000000D+01  .000000000000D+00 -.931322574615D-08  .660000000000D+02
     .331206000000D+06  .400000000000D+01
15 16  7 20 22  0  0.0 -.320178922266D-03 -.159161572810D-11  .000000000000D+00
     .140000000000D+02 -.211562500000D+02  .559380443298D-08 -.204199623777D+01
    -.107288360596D-05  .823279249016D-02  .444613397121D-05  .515362183571D+04
     .338400000000D+06  .447034835815D-07 -.113536073837D+01 -.894069671631D-07
     .930068017958D+00  .278062500000D+03  .486845977832D+00 -.853606984729D-08
    -.215008955986D-09  .100000000000D+01  .190600000000D+04  .000000000000D+00
     .240000000000D+01  .000000000000D+00 -.107102096081D-07  .140000000000D+02
     .331206000000D+06  .400000000000D+01
16 16  7 20 22  0  0.0 -.357534736395D-05  .227373675443D-11  .000000000000D+00
     .920000000000D+02  .124593750000D+03  .385337479424D-08 -.431603777344D+00
     .672042369843D-05  .870048906654D-02  .497326254845D-05  .515353621292D+04
     .338400000000D+06  .147148966789D-06  .109233699206D+01  .316649675369D-07
     .990666147324D+00  .297031250000D+03  .388471947724D+00 -.808926552181D-08
     .505735351622D-09  .100000000000D+01  .190600000000D+04  .000000000000D+00
     .965000000000D+01  .000000000000D+00 -.107102096081D-07  .920000000000D+02
     .331206000000D+06  .400000000000D+01
17 16  7 20 22  0  0.0 -.203870236874D-03  .113686837722D-12  .000000000000D+00
     .105000000000D+03 -.628750000000D+02  .461304929488D-08 -.127387990308D+01
    -.292807817459D-05  .110254189931D-01  .152364373207D-05  .515371884346D+04
     .338400000000D+06  .100582838058D-06  .211375343749D+01  .312924385071D-06
     .976811031597D+00  .357468750000D+03 -.192695850428D+01 -.837892044424D-08
    -.116433421348D-09  .100000000000D+01  .190600000000D+04  .000000000000D+00
     .340000000000D+01  .000000000000D+00 -.107102096081D-07  .105000000000D+03
     .331206000000D+06  .400000000000D+01
18 16  7 20 22  0  0.0  .538581982255D-03  .409272615798D-11  .000000000000D+00
     .840000000000D+02  .391875000000D+02  .566345019115D-08  .284313763358D+00
     .219792127609D-05  .172671847977D-01  .862218439579D-05  .515369767761D+04
     .338400000000D+06 -.268220901489D-06 -.215574224240D+01  .987201929092D-07
     .924937823190D+00  .198687500000D+03 -.186972753103D+01 -.881000982941D-08
     .410374236591D-09  .100000000000D+01  .190600000000D+04  .000000000000D+00
     .240000000000D+01  .000000000000D+00 -.121071934700D-07  .840000000000D+02
     .331206000000D+06  .400000000000D+01
19 16  7 20 22  0  0.0 -.524820294231D-03  .227373675443D-12  .000000000000D+00
     .520000000000D+02 -.748750000000D+02  .460554898246D-08  .183919797848D+01
    -.398047268391D-05  .107311722822D-01  .214390456676D-05  .515362359428D+04
     .338400000000D+06 -.214204192162D-06  .216240804180D+01 -.465661287308D-07
     .973969408318D+00  .348843750000D+03  .823843540802D+00 -.835427656058D-08
    -.161435295857D-09  .100000000000D+01  .190600000000D+04  .000000000000D+00
     .240000000000D+01  .000000000000D+00 -.149011611938D-07  .520000000000D+02
     .331206000000D+06  .400000000000D+01
